NORAD_CAT_ID,OBJECT_NAME,OBJECT_TYPE,EPOCH,MEAN_MOTION,ECCENTRICITY,INCLINATION,RA_OF_ASC_NODE,ARG_OF_PERICENTER,MEAN_ANOMALY,BSTAR,MEAN_MOTION_DOT,MEAN_MOTION_DDOT,TLE_LINE0,TLE_LINE1,TLE_LINE2,SEMIMAJOR_AXIS,PERIOD,APOGEE,PERIGEE,DECAYED
53291.0,STARLINK-4166,PAYLOAD,2023-03-27 22:26:52,15.08875499,9.54e-05,53.2171,337.1397,138.5901,221.5164,0.0016953,0.00026822,0.0,0 STARLINK-4166,1 53291U 22086BB  23086.93533344  .00026822  00000-0  16953-2 0  9997,2 53291  53.2171 337.1397 0000954 138.5901 221.5164 15.08875499 38557,6917.772,95.435,540.297,538.977,0.0
53291.0,STARLINK-4166,PAYLOAD,2023-03-28 03:13:01,15.08879322,8.34e-05,53.2174,336.2471,120.2216,239.8859,0.0013583,0.00021419,0.0,0 STARLINK-4166,1 53291U 22086BB  23087.13404919  .00021419  00000-0  13583-2 0  9998,2 53291  53.2174 336.2471 0000834 120.2216 239.8859 15.08879322 38425,6917.76,95.435,540.202,539.048,0.0
53291.0,STARLINK-4166,PAYLOAD,2023-03-28 20:42:14,15.08908824,7.66e-05,53.2168,332.9754,132.1269,227.9788,0.0014284,0.00022561,0.0,0 STARLINK-4166,1 53291U 22086BB  23087.86266259  .00022561  00000-0  14284-2 0  9999,2 53291  53.2168 332.9754 0000766 132.1269 227.9788 15.08908824 38697,6917.67,95.433,540.065,539.005,0.0
53291.0,STARLINK-4166,PAYLOAD,2023-03-28 23:53:02,15.08856852,0.000108,53.2156,332.3778,162.6039,197.4991,0.00067393,0.00010459,0.0,0 STARLINK-4166,1 53291U 22086BB  23087.99516778  .00010459  00000-0  67393-3 0  9990,2 53291  53.2156 332.3778 0001080 162.6039 197.4991 15.08856852 38552,6917.829,95.436,540.441,538.947,0.0
53291.0,STARLINK-4166,PAYLOAD,2023-03-29 01:28:25,15.08852188,6.11e-05,53.2163,332.0837,111.5885,248.5172,0.00095407,0.00014934,0.0,0 STARLINK-4166,1 53291U 22086BB  23088.06141128  .00014934  00000-0  95407-3 0  9991,2 53291  53.2163 332.0837 0000611 111.5885 248.5172 15.08852188 38720,6917.843,95.437,540.131,539.285,0.0
53291.0,STARLINK-4166,PAYLOAD,2023-03-29 20:33:04,15.08836123,7.67e-05,53.2166,328.514,87.0396,273.0683,0.00091848,0.00014358,0.0,0 STARLINK-4166,1 53291U 22086BB  23088.85629720  .00014358  00000-0  91848-3 0  9992,2 53291  53.2166 328.5140 0000767  87.0396 273.0683 15.08836123 38682,6917.892,95.438,540.288,539.227,0.0
53291.0,STARLINK-4166,PAYLOAD,2023-03-30 01:19:13,15.08841386,7.23e-05,53.2172,327.6217,91.0135,269.094,0.00055294,8.524e-05,0.0,0 STARLINK-4166,1 53291U 22086BB  23089.05501576  .00008524  00000-0  55294-3 0  9996,2 53291  53.2172 327.6217 0000723  91.0135 269.0940 15.08841386 38871,6917.876,95.437,540.241,539.241,0.0
53291.0,STARLINK-4166,PAYLOAD,2023-03-31 01:10:00,15.088425,9.19e-05,53.2162,323.1646,75.3697,284.7397,0.00025126,3.714e-05,0.0,0 STARLINK-4166,1 53291U 22086BB  23090.04861762  .00003714  00000-0  25126-3 0  9990,2 53291  53.2162 323.1646 0000919  75.3697 284.7397 15.08842500 38860,6917.873,95.437,540.373,539.102,0.0
53291.0,STARLINK-4166,PAYLOAD,2023-03-31 15:28:30,15.08815676,0.0001224,53.217,320.4806,131.473,228.6367,-0.00019986,-3.465e-05,0.0,0 STARLINK-4166,1 53291U 22086BB  23090.64479500 -.00003465  00000-0 -19986-3 0  9993,2 53291  53.2170 320.4806 0001224 131.4730 228.6367 15.08815676 38957,6917.955,95.439,540.666,538.973,0.0
53291.0,STARLINK-4166,PAYLOAD,2023-03-31 21:50:02,15.08839787,7.32e-05,53.2161,319.2969,72.6524,287.4548,0.00036024,5.45e-05,0.0,0 STARLINK-4166,1 53291U 22086BB  23090.90975260  .00005450  00000-0  36024-3 0  9992,2 53291  53.2161 319.2969 0000732  72.6524 287.4548 15.08839787 38990,6917.881,95.438,540.252,539.24,0.0
53291.0,STARLINK-4166,PAYLOAD,2023-04-01 01:00:48,15.08842776,8.55e-05,53.2162,318.7018,75.5687,284.54,0.00040943,6.235e-05,0.0,0 STARLINK-4166,1 53291U 22086BB  23091.04223235  .00006235  00000-0  40943-3 0  9993,2 53291  53.2162 318.7018 0000855  75.5687 284.5400 15.08842776 39176,6917.872,95.437,540.328,539.145,0.0
53291.0,STARLINK-4166,PAYLOAD,2023-04-01 20:05:26,15.08845295,9.55e-05,53.2156,315.1339,67.2269,292.8824,0.00046337,7.095e-05,0.0,0 STARLINK-4166,1 53291U 22086BB  23091.83711300  .00007095  00000-0  46337-3 0  9993,2 53291  53.2156 315.1339 0000955  67.2269 292.8824 15.08845295 39295,6917.864,95.437,540.39,539.069,0.0
53291.0,STARLINK-4166,PAYLOAD,2023-04-02 13:34:41,15.08844369,8.72e-05,53.2151,311.8633,69.363,290.7456,0.00054619,8.416e-05,0.0,0 STARLINK-4166,1 53291U 22086BB  23092.56575282  .00008416  00000-0  54619-3 0  9991,2 53291  53.2151 311.8633 0000872  69.3630 290.7456 15.08844369 39247,6917.867,95.437,540.335,539.129,0.0
53291.0,STARLINK-4166,PAYLOAD,2023-04-02 21:31:36,15.08848455,8.79e-05,53.216,310.3765,88.6129,271.4964,7.5515e-05,9.15e-06,0.0,0 STARLINK-4166,1 53291U 22086BB  23092.89694511  .00000915  00000-0  75515-4 0  9999,2 53291  53.2160 310.3765 0000879  88.6129 271.4964 15.08848455 39454,6917.855,95.437,540.328,539.111,0.0
53291.0,STARLINK-4166,PAYLOAD,2023-04-03 13:25:27,15.08842256,9.17e-05,53.2166,307.404,89.3557,270.754,-5.5487e-05,-1.171e-05,0.0,0 STARLINK-4166,1 53291U 22086BB  23093.55934534 -.00001171  00000-0 -55487-4 0  9998,2 53291  53.2166 307.4040 0000917  89.3557 270.7540 15.08842256 39555,6917.873,95.437,540.373,539.104,0.0
53291.0,STARLINK-4166,PAYLOAD,2023-04-03 21:22:23,15.08843776,9.42e-05,53.2172,305.9165,110.2648,249.8445,3.5273e-07,-2.82e-06,0.0,0 STARLINK-4166,1 53291U 22086BB  23093.89054879 -.00000282  00000-0  35273-6 0  9994,2 53291  53.2172 305.9165 0000942 110.2648 249.8445 15.08843776 39443,6917.869,95.437,540.386,539.082,0.0
53291.0,STARLINK-4166,PAYLOAD,2023-04-04 13:16:14,15.0883977,9.08e-05,53.2157,302.9411,91.5127,268.5969,6.7775e-05,7.91e-06,0.0,0 STARLINK-4166,1 53291U 22086BB  23094.55294877  .00000791  00000-0  67775-4 0  9996,2 53291  53.2157 302.9411 0000908  91.5127 268.5969 15.08839770 39709,6917.881,95.438,540.374,539.118,0.0
53291.0,STARLINK-4166,PAYLOAD,2023-04-04 21:13:10,15.088425,8.07e-05,53.2153,301.4541,82.2219,277.8865,9.123e-05,1.165e-05,0.0,0 STARLINK-4166,1 53291U 22086BB  23094.88414639  .00001165  00000-0  91230-4 0  9991,2 53291  53.2153 301.4541 0000807  82.2219 277.8865 15.08842500 39758,6917.873,95.437,540.296,539.179,0.0
53291.0,STARLINK-4166,PAYLOAD,2023-04-05 00:23:56,15.08843345,8.22e-05,53.2152,300.8593,79.3722,280.7363,9.6075e-05,1.242e-05,0.0,0 STARLINK-4166,1 53291U 22086BB  23095.01662574  .00001242  00000-0  96075-4 0  9998,2 53291  53.2152 300.8593 0000822  79.3722 280.7363 15.08843345 39619,6917.87,95.437,540.304,539.167,0.0
53291.0,STARLINK-4166,PAYLOAD,2023-04-05 21:03:57,15.0884246,0.0001402,53.2175,296.9919,85.6332,274.4821,3.7198e-05,3.04e-06,0.0,0 STARLINK-4166,1 53291U 22086BB  23095.87774975  .00000304  00000-0  37198-4 0  9990,2 53291  53.2175 296.9919 0001402  85.6332 274.4821 15.08842460 39901,6917.873,95.437,540.708,538.768,0.0
53291.0,STARLINK-4166,PAYLOAD,2023-04-06 12:57:48,15.08840949,0.0001228,53.2167,294.021,77.3901,282.7229,8.2481e-05,1.025e-05,0.0,0 STARLINK-4166,1 53291U 22086BB  23096.54014971  .00001025  00000-0  82481-4 0  9994,2 53291  53.2167 294.0210 0001228  77.3901 282.7229 15.08840949 40008,6917.877,95.437,540.592,538.893,0.0
53291.0,STARLINK-4166,PAYLOAD,2023-04-06 19:19:21,15.08844552,9.25e-05,53.2168,292.8322,77.1177,282.9918,8.3782e-05,1.046e-05,0.0,0 STARLINK-4166,1 53291U 22086BB  23096.80510643  .00001046  00000-0  83782-4 0  9998,2 53291  53.2168 292.8322 0000925  77.1177 282.9918 15.08844552 40040,6917.866,95.437,540.371,539.092,0.0
53291.0,STARLINK-4166,PAYLOAD,2023-04-07 12:48:36,15.08813786,0.0001017,53.2176,289.5638,71.5335,288.5768,0.00059855,9.244e-05,0.0,0 STARLINK-4166,1 53291U 22086BB  23097.53376035  .00009244  00000-0  59855-3 0  9995,2 53291  53.2176 289.5638 0001017  71.5335 288.5768 15.08813786 39991,6917.961,95.439,540.529,539.122,0.0
53291.0,STARLINK-4166,PAYLOAD,2023-04-07 19:10:07,15.08848444,0.0001052,53.2174,288.3732,73.1666,286.9441,0.00011498,1.543e-05,0.0,0 STARLINK-4166,1 53291U 22086BB  23097.79870282  .00001543  00000-0  11498-3 0  9991,2 53291  53.2174 288.3732 0001052  73.1666 286.9441 15.08848444 40031,6917.855,95.437,540.447,538.992,0.0
53291.0,STARLINK-4166,PAYLOAD,2023-04-08 12:39:23,15.08840329,7.74e-05,53.2228,285.105,352.9816,7.1165,3.8103e-05,3.19e-06,0.0,0 STARLINK-4166,1 53291U 22086BB  23098.52735039  .00000319  00000-0  38103-4 0  9996,2 53291  53.2228 285.1050 0000774 352.9816   7.1165 15.08840329 40146,6917.879,95.438,540.28,539.209,0.0
53291.0,STARLINK-4166,PAYLOAD,2023-04-09 10:54:46,15.08841243,0.0001113,53.2171,280.9389,78.7268,281.3849,1.7505e-05,-9e-08,0.0,0 STARLINK-4166,1 53291U 22086BB  23099.45470944 -.00000009  00000-0  17505-4 0  9990,2 53291  53.2171 280.9389 0001113  78.7268 281.3849 15.08841243 40447,6917.877,95.437,540.512,538.972,0.0
53291.0,STARLINK-4166,PAYLOAD,2023-04-09 18:51:42,15.08842801,8.29e-05,53.2169,279.4494,78.8002,281.3083,3.6654e-05,2.96e-06,0.0,0 STARLINK-4166,1 53291U 22086BB  23099.78590867  .00000296  00000-0  36654-4 0  9996,2 53291  53.2169 279.4494 0000829  78.8002 281.3083 15.08842801 40333,6917.872,95.437,540.31,539.163,0.0
53291.0,STARLINK-4166,PAYLOAD,2023-04-10 12:20:57,15.08838406,0.0001061,53.2168,276.1789,88.4277,271.6837,0.00010075,1.316e-05,0.0,0 STARLINK-4166,1 53291U 22086BB  23100.51455208  .00001316  00000-0  10075-3 0  9991,2 53291  53.2168 276.1789 0001061  88.4277 271.6837 15.08838406 40608,6917.885,95.438,540.484,539.016,0.0
53291.0,STARLINK-4166,PAYLOAD,2023-04-10 21:53:15,15.08848147,0.0001208,53.2165,274.3947,93.2017,266.9113,0.00016723,2.375e-05,0.0,0 STARLINK-4166,1 53291U 22086BB  23100.91198345  .00002375  00000-0  16723-3 0  9993,2 53291  53.2165 274.3947 0001208  93.2017 266.9113 15.08848147 40506,6917.855,95.437,540.556,538.885,0.0
53291.0,STARLINK-4166,PAYLOAD,2023-04-11 12:11:44,15.08836387,0.0001398,53.2162,271.7172,90.0084,270.1068,4.6712e-05,4.56e-06,0.0,0 STARLINK-4166,1 53291U 22086BB  23101.50815613  .00000456  00000-0  46712-4 0  9993,2 53291  53.2162 271.7172 0001398  90.0084 270.1068 15.08836387 40591,6917.891,95.438,540.724,538.789,0.0
